OBJECT_NAME,OBJECT_ID,EPOCH,MEAN_MOTION,ECCENTRICITY,INCLINATION,RA_OF_ASC_NODE,ARG_OF_PERICENTER,MEAN_ANOMALY,EPHEMERIS_TYPE,CLASSIFICATION_TYPE,NORAD_CAT_ID,ELEMENT_SET_NO,REV_AT_EPOCH,BSTAR,MEAN_MOTION_DOT,MEAN_MOTION_DDOT
GPS BIIR-5  (PRN 22),2000-040A,2026-07-20T07:31:17.886144,2.00557971,.01203709,54.8480,213.8463,302.8111,139.2018,0,U,26407,999,19061,0,.62E-6,0
GPS BIIR-8  (PRN 16),2003-005A,2026-07-20T06:19:26.040576,2.00558827,.01483955,54.8784,213.6545,53.1892,129.0086,0,U,27663,999,17197,0,.62E-6,0
GPS BIIR-11 (PRN 19),2004-009A,2026-07-20T07:19:45.465312,2.00553616,.01173381,54.8023,274.3476,174.5558,190.3314,0,U,28190,999,16361,0,-.51E-6,0
GPS BIIR-13 (PRN 02),2004-045A,2026-07-19T23:57:46.088640,2.00557373,.01702634,55.1149,323.5747,317.1768,251.2314,0,U,28474,999,15908,0,-.107E-5,0
GPS BIIRM-1 (PRN 17),2005-038A,2026-07-20T06:26:29.652000,2.00563446,.01283048,54.8515,271.8407,296.4784,71.5848,0,U,28874,999,15250,0,-.46E-6,0
INMARSAT 4-F2 (SOUTHPAN/PRN 122),2005-044A,2026-07-20T06:58:07.330368,1.00271135,.00029242,5.1387,43.6796,61.7327,80.6729,0,U,28899,999,7585,0,-.265E-5,0
GPS BIIRM-2 (PRN 31),2006-042A,2026-07-19T21:57:40.473792,2.00568000,.01073148,54.7131,150.0396,55.2925,316.6645,0,U,29486,999,14505,0,.36E-6,0
GPS BIIRM-3 (PRN 12),2006-052A,2026-07-19T19:50:24.173952,2.00559979,.00847461,54.9319,212.7123,91.0071,269.9911,0,U,29601,999,14406,0,.58E-6,0
GPS BIIRM-4 (PRN 15),2007-047A,2026-07-20T03:10:50.032128,2.00553782,.01679521,54.1195,78.7075,88.1073,273.8731,0,U,32260,999,13747,0,-.64E-6,0
COSMOS 2433 (720),2007-052A,2026-07-17T21:16:46.394976,2.13104037,.0003631,65.5578,314.9006,203.8821,156.1180,0,U,32275,999,14571,0,-.7E-6,0
COSMOS 2432 (719),2007-052B,2026-07-19T10:17:25.948320,2.13103034,.00073737,65.5728,314.9771,321.3714,85.4621,0,U,32276,999,14577,0,-.79E-6,0
GPS BIIRM-5 (PRN 29),2007-062A,2026-07-19T10:11:38.615136,2.00561903,.00360699,55.0061,272.8552,167.8410,169.2189,0,U,32384,999,13615,0,-.47E-6,0
COSMOS 2434 (721),2007-065A,2026-07-18T11:53:46.942080,2.13101158,.00012335,64.3202,190.8597,326.9616,29.9549,0,U,32393,999,14443,0,.65E-6,0
COSMOS 2436 (723),2007-065C,2026-07-19T11:45:29.836224,2.13099974,.0017324,64.3287,190.8988,353.6261,178.2139,0,U,32395,999,14441,0,.75E-6,0
GPS BIIRM-6 (PRN 07),2008-012A,2026-07-20T00:58:38.093952,2.00573308,.0211725,54.5004,148.6123,248.1970,109.5164,0,U,32711,999,13441,0,.34E-6,0
GPS BIIRM-8 (PRN 05),2009-043A,2026-07-20T06:36:58.747680,2.00552591,.00536671,56.2311,26.1534,84.6135,92.2498,0,U,35752,999,12402,0,-.9E-6,0
COSMOS 2456 (730),2009-070A,2026-07-16T04:16:30.382752,2.13103565,.0003619,65.0282,69.9837,341.3386,195.9451,0,U,36111,999,12904,0,-.16E-6,0
COSMOS 2457 (733),2009-070B,2026-07-20T05:40:29.774208,2.13100985,.00043031,65.0165,69.6883,122.0917,55.7210,0,U,36112,999,12913,0,-.51E-6,0
COSMOS 2460 (732),2010-007C,2026-07-19T13:58:51.260736,2.13101428,.00018585,65.3996,313.3704,149.6273,248.4791,0,U,36402,999,12742,0,-.79E-6,0
GPS BIIF-1  (PRN 25),2010-022A,2026-07-20T07:40:20.841024,2.00564071,.01268549,54.2682,207.2273,66.1604,262.5976,0,U,36585,999,11825,0,.67E-6,0
BEIDOU-2 IGSO-1 (C06),2010-036A,2026-07-19T14:08:33.404064,1.00262639,.00586524,54.3073,162.6674,225.1805,228.5775,0,U,36828,999,5842,0,-.97E-6,0
BEIDOU-2 G4 (C04),2010-057A,2026-07-20T08:18:51.452640,1.00272769,.00054158,3.7277,68.7436,185.5898,328.4387,0,U,37210,999,5762,0,-.117E-5,0
BEIDOU-2 IGSO-2 (C07),2010-068A,2026-07-19T20:07:19.149312,1.00272665,.00570323,47.4862,271.4234,214.1385,222.1771,0,U,37256,999,5712,0,-.205E-5,0
BEIDOU-2 IGSO-3 (C08),2011-013A,2026-07-19T11:57:45.076896,1.00259758,.00356634,62.4524,39.8452,183.4558,359.6554,0,U,37384,999,5598,0,-.176E-5,0
GSAT-8 (GAGAN/PRN 127),2011-022A,2026-07-20T04:50:14.764992,1.00270921,.00025294,2.2144,81.4233,152.8051,191.3883,0,U,37605,999,5354,0,.81E-6,0
BEIDOU-2 IGSO-4 (C09),2011-038A,2026-07-19T20:04:35.715072,1.00278594,.01603233,54.6050,165.3822,231.4991,296.2808,0,U,37763,999,5497,0,-.23E-6,0
GSAT0101 (GALILEO-PFM),2011-060A,2026-07-17T22:29:50.024256,1.70475655,.0002114,56.9832,340.9281,62.8592,297.1517,0,U,37846,999,9164,0,-.105E-5,0
GSAT0102 (GALILEO-FM2),2011-060B,2026-07-19T15:17:29.144832,1.70475938,.00019369,56.9834,340.8826,5.0706,3.7701,0,U,37847,999,9168,0,-.107E-5,0
COSMOS 2476 (744),2011-064A,2026-07-18T04:11:02.956128,2.13103618,.00220678,65.2874,71.8256,235.6441,301.3919,0,U,37867,999,11442,0,-.32E-6,0
COSMOS 2477 (745),2011-064B,2026-07-19T09:01:21.552960,2.13102797,.00190628,65.2948,71.8648,236.5942,322.5208,0,U,37868,999,11444,0,-.43E-6,0
COSMOS 2475 (743),2011-064C,2026-07-19T09:54:59.368032,2.13101651,.00245691,65.3016,71.8854,250.6224,292.0479,0,U,37869,999,11445,0,-.44E-6,0
